[{"OBJECT_NAME":"COSMOS 2539","OBJECT_ID":"2019-048A","EPOCH":"2026-04-24T17:07:57.572256","MEAN_MOTION":1.00271244,"ECCENTRICITY":4.18e-5,"INCLINATION":0.0325,"RA_OF_ASC_NODE":69.6278,"ARG_OF_PERICENTER":88.28,"MEAN_ANOMALY":323.8128,"EPHEMERIS_TYPE":0,"CLASSIFICATION_TYPE":"U","NORAD_CAT_ID":44457,"ELEMENT_SET_NO":999,"REV_AT_EPOCH":2469,"BSTAR":0,"MEAN_MOTION_DOT":6.6e-7,"MEAN_MOTION_DDOT":0},{"OBJECT_NAME":"EDRS-C","OBJECT_ID":"2019-049A","EPOCH":"2026-04-26T12:24:38.521728","MEAN_MOTION":1.00272872,"ECCENTRICITY":0.0001281,"INCLINATION":0.025,"RA_OF_ASC_NODE":141.1372,"ARG_OF_PERICENTER":235.2943,"MEAN_ANOMALY":166.7494,"EPHEMERIS_TYPE":0,"CLASSIFICATION_TYPE":"U","NORAD_CAT_ID":44475,"ELEMENT_SET_NO":999,"REV_AT_EPOCH":2469,"BSTAR":0,"MEAN_MOTION_DOT":-2.74e-6,"MEAN_MOTION_DDOT":0},{"OBJECT_NAME":"INTELSAT 39 (IS-39)","OBJECT_ID":"2019-049B","EPOCH":"2026-04-25T17:19:40.221984","MEAN_MOTION":1.0026954,"ECCENTRICITY":4.794e-5,"INCLINATION":0.0173,"RA_OF_ASC_NODE":238.7985,"ARG_OF_PERICENTER":6.5465,"MEAN_ANOMALY":290.2524,"EPHEMERIS_TYPE":0,"CLASSIFICATION_TYPE":"U","NORAD_CAT_ID":44476,"ELEMENT_SET_NO":999,"REV_AT_EPOCH":2460,"BSTAR":0,"MEAN_MOTION_DOT":0,"MEAN_MOTION_DDOT":0},{"OBJECT_NAME":"AMOS-17","OBJECT_ID":"2019-050A","EPOCH":"2026-04-26T07:41:38.639904","MEAN_MOTION":1.00269017,"ECCENTRICITY":0.000137,"INCLINATION":0.0146,"RA_OF_ASC_NODE":321.4256,"ARG_OF_PERICENTER":73.4854,"MEAN_ANOMALY":311.8308,"EPHEMERIS_TYPE":0,"CLASSIFICATION_TYPE":"U","NORAD_CAT_ID":44479,"ELEMENT_SET_NO":999,"REV_AT_EPOCH":2466,"BSTAR":0,"MEAN_MOTION_DOT":9.6e-7,"MEAN_MOTION_DDOT":0},{"OBJECT_NAME":"AEHF-5 (USA 292)","OBJECT_ID":"2019-051A","EPOCH":"2026-04-26T12:18:02.297376","MEAN_MOTION":1.00272844,"ECCENTRICITY":0.006949,"INCLINATION":1.5045,"RA_OF_ASC_NODE":332.3888,"ARG_OF_PERICENTER":2.7613,"MEAN_ANOMALY":156.9573,"EPHEMERIS_TYPE":0,"CLASSIFICATION_TYPE":"U","NORAD_CAT_ID":44481,"ELEMENT_SET_NO":999,"REV_AT_EPOCH":2474,"BSTAR":0,"MEAN_MOTION_DOT":-2.73e-6,"MEAN_MOTION_DDOT":0},{"OBJECT_NAME":"EUTELSAT 5 WEST B","OBJECT_ID":"2019-067A","EPOCH":"2026-04-26T08:24:36.217152","MEAN_MOTION":1.00271366,"ECCENTRICITY":0.0003151,"INCLINATION":0.069,"RA_OF_ASC_NODE":9.7145,"ARG_OF_PERICENTER":25.3558,"MEAN_ANOMALY":300.4277,"EPHEMERIS_TYPE":0,"CLASSIFICATION_TYPE":"U","NORAD_CAT_ID":44624,"ELEMENT_SET_NO":999,"REV_AT_EPOCH":2391,"BSTAR":0,"MEAN_MOTION_DOT":-5.5e-7,"MEAN_MOTION_DDOT":0},{"OBJECT_NAME":"TJS-4","OBJECT_ID":"2019-070A","EPOCH":"2026-04-26T12:15:10.071936","MEAN_MOTION":1.0026982,"ECCENTRICITY":0.0002916,"INCLINATION":0.0768,"RA_OF_ASC_NODE":76.6966,"ARG_OF_PERICENTER":353.52,"MEAN_ANOMALY":51.6045,"EPHEMERIS_TYPE":0,"CLASSIFICATION_TYPE":"U","NORAD_CAT_ID":44637,"ELEMENT_SET_NO":999,"REV_AT_EPOCH":2402,"BSTAR":0,"MEAN_MOTION_DOT":-1.81e-6,"MEAN_MOTION_DDOT":0},{"OBJECT_NAME":"BEIDOU-3 IGSO-3","OBJECT_ID":"2019-073A","EPOCH":"2026-04-25T20:42:52.587360","MEAN_MOTION":1.00252806,"ECCENTRICITY":0.00421169,"INCLINATION":54.8923,"RA_OF_ASC_NODE":281.4605,"ARG_OF_PERICENTER":188.7957,"MEAN_ANOMALY":171.0495,"EPHEMERIS_TYPE":0,"CLASSIFICATION_TYPE":"U","NORAD_CAT_ID":44709,"ELEMENT_SET_NO":999,"REV_AT_EPOCH":2393,"BSTAR":0,"MEAN_MOTION_DOT":-1.95e-6,"MEAN_MOTION_DDOT":0},{"OBJECT_NAME":"TIBA-1","OBJECT_ID":"2019-080A","EPOCH":"2026-04-26T06:53:30.128064","MEAN_MOTION":1.00272688,"ECCENTRICITY":0.0001767,"INCLINATION":0.0583,"RA_OF_ASC_NODE":344.5614,"ARG_OF_PERICENTER":55.4223,"MEAN_ANOMALY":313.1788,"EPHEMERIS_TYPE":0,"CLASSIFICATION_TYPE":"U","NORAD_CAT_ID":44800,"ELEMENT_SET_NO":999,"REV_AT_EPOCH":2353,"BSTAR":0,"MEAN_MOTION_DOT":1.43e-6,"MEAN_MOTION_DDOT":0},{"OBJECT_NAME":"INMARSAT GX5","OBJECT_ID":"2019-080B","EPOCH":"2026-04-26T06:36:38.677824","MEAN_MOTION":1.00269427,"ECCENTRICITY":0.0001699,"INCLINATION":0.047,"RA_OF_ASC_NODE":20.5677,"ARG_OF_PERICENTER":11.2674,"MEAN_ANOMALY":292.6188,"EPHEMERIS_TYPE":0,"CLASSIFICATION_TYPE":"U","NORAD_CAT_ID":44801,"ELEMENT_SET_NO":999,"REV_AT_EPOCH":626,"BSTAR":0,"MEAN_MOTION_DOT":6.2e-7,"MEAN_MOTION_DDOT":0},{"OBJECT_NAME":"JCSAT-18 (KACIFIC 1)","OBJECT_ID":"2019-091A","EPOCH":"2026-04-26T10:51:32.414400","MEAN_MOTION":1.00270873,"ECCENTRICITY":1.27e-5,"INCLINATION":0.0204,"RA_OF_ASC_NODE":347.3599,"ARG_OF_PERICENTER":289.649,"MEAN_ANOMALY":250.3443,"EPHEMERIS_TYPE":0,"CLASSIFICATION_TYPE":"U","NORAD_CAT_ID":44868,"ELEMENT_SET_NO":999,"REV_AT_EPOCH":2349,"BSTAR":0,"MEAN_MOTION_DOT":-2.13e-6,"MEAN_MOTION_DDOT":0},{"OBJECT_NAME":"ELEKTRO-L 3","OBJECT_ID":"2019-095A","EPOCH":"2026-04-26T12:13:02.776224","MEAN_MOTION":1.00271264,"ECCENTRICITY":0.000108,"INCLINATION":0.1252,"RA_OF_ASC_NODE":75.736,"ARG_OF_PERICENTER":295.05,"MEAN_ANOMALY":102.9252,"EPHEMERIS_TYPE":0,"CLASSIFICATION_TYPE":"U","NORAD_CAT_ID":44903,"ELEMENT_SET_NO":999,"REV_AT_EPOCH":2319,"BSTAR":0,"MEAN_MOTION_DOT":-1.08e-6,"MEAN_MOTION_DDOT":0},{"OBJECT_NAME":"SHIJIAN-20 (SJ-20)","OBJECT_ID":"2019-097A","EPOCH":"2026-04-26T12:04:03.636768","MEAN_MOTION":1.00274333,"ECCENTRICITY":0.0011524,"INCLINATION":4.7895,"RA_OF_ASC_NODE":75.6805,"ARG_OF_PERICENTER":51.5438,"MEAN_ANOMALY":313.0471,"EPHEMERIS_TYPE":0,"CLASSIFICATION_TYPE":"U","NORAD_CAT_ID":44910,"ELEMENT_SET_NO":999,"REV_AT_EPOCH":2318,"BSTAR":0,"MEAN_MOTION_DOT":1.27e-6,"MEAN_MOTION_DDOT":0},{"OBJECT_NAME":"TJS-5","OBJECT_ID":"2020-002A","EPOCH":"2026-04-26T12:22:01.913952","MEAN_MOTION":1.00271513,"ECCENTRICITY":0.0006161,"INCLINATION":0.1402,"RA_OF_ASC_NODE":270.8865,"ARG_OF_PERICENTER":123.2109,"MEAN_ANOMALY":113.4399,"EPHEMERIS_TYPE":0,"CLASSIFICATION_TYPE":"U","NORAD_CAT_ID":44978,"ELEMENT_SET_NO":999,"REV_AT_EPOCH":2318,"BSTAR":0,"MEAN_MOTION_DOT":-3.54e-6,"MEAN_MOTION_DDOT":0},{"OBJECT_NAME":"GSAT-30","OBJECT_ID":"2020-005A","EPOCH":"2026-04-26T12:15:02.582784","MEAN_MOTION":1.00268441,"ECCENTRICITY":0.0002778,"INCLINATION":0.0192,"RA_OF_ASC_NODE":124.3236,"ARG_OF_PERICENTER":305.3557,"MEAN_ANOMALY":51.6063,"EPHEMERIS_TYPE":0,"CLASSIFICATION_TYPE":"U","NORAD_CAT_ID":45026,"ELEMENT_SET_NO":999,"REV_AT_EPOCH":2299,"BSTAR":0,"MEAN_MOTION_DOT":0,"MEAN_MOTION_DDOT":0},{"OBJECT_NAME":"EUTELSAT KONNECT","OBJECT_ID":"2020-005B","EPOCH":"2026-04-26T08:28:05.882304","MEAN_MOTION":1.00270143,"ECCENTRICITY":0.0001998,"INCLINATION":0.0688,"RA_OF_ASC_NODE":89.4434,"ARG_OF_PERICENTER":204.507,"MEAN_ANOMALY":54.6374,"EPHEMERIS_TYPE":0,"CLASSIFICATION_TYPE":"U","NORAD_CAT_ID":45027,"ELEMENT_SET_NO":999,"REV_AT_EPOCH":2381,"BSTAR":0,"MEAN_MOTION_DOT":3.7e-7,"MEAN_MOTION_DDOT":0},{"OBJECT_NAME":"JCSAT-17","OBJECT_ID":"2020-013A","EPOCH":"2026-04-25T22:48:48.354624","MEAN_MOTION":1.00272021,"ECCENTRICITY":0.00040251,"INCLINATION":5.3943,"RA_OF_ASC_NODE":356.372,"ARG_OF_PERICENTER":24.9691,"MEAN_ANOMALY":310.8132,"EPHEMERIS_TYPE":0,"CLASSIFICATION_TYPE":"U","NORAD_CAT_ID":45245,"ELEMENT_SET_NO":999,"REV_AT_EPOCH":2270,"BSTAR":0,"MEAN_MOTION_DOT":-3.35e-6,"MEAN_MOTION_DDOT":0}]
